OBJECT_NAME,OBJECT_ID,EPOCH,MEAN_MOTION,ECCENTRICITY,INCLINATION,RA_OF_ASC_NODE,ARG_OF_PERICENTER,MEAN_ANOMALY,EPHEMERIS_TYPE,CLASSIFICATION_TYPE,NORAD_CAT_ID,ELEMENT_SET_NO,REV_AT_EPOCH,BSTAR,MEAN_MOTION_DOT,MEAN_MOTION_DDOT
H-2A R/B,2006-002B,2026-07-19T00:26:56.184576,15.18481784,.00510134,98.2603,358.7430,153.1092,207.2801,0,U,28932,999,11435,.20950488E-3,.4383E-4,0
RESURS-DK 1,2006-021A,2026-07-19T05:25:55.994592,15.13327135,.00073514,69.9302,256.6083,266.6194,93.4131,0,U,29228,999,10742,.55963591E-4,.89E-5,0
CZ-4B R/B,2006-046C,2026-07-19T02:14:36.734208,15.17998869,.00329648,97.5433,244.6030,168.6677,191.5306,0,U,29507,999,7997,.10523005E-3,.2098E-4,0
CZ-2C R/B,2007-010B,2026-07-19T06:06:59.154048,14.20282428,.00577268,98.4121,307.0411,271.7191,87.7375,0,U,31114,999,99839,.397393E-4,.45E-6,0
COSMO-SKYMED 1,2007-023A,2026-07-19T06:46:13.660320,14.97232646,.00017337,97.8851,32.4099,99.6516,260.4901,0,U,31598,999,3459,.14967082E-3,.1672E-4,0
COSMOS 2428,2007-029A,2026-07-19T05:08:27.320640,14.12937129,.00072644,70.9382,287.2337,73.2878,286.9040,0,U,31792,999,98267,.18342111E-3,.294E-5,0
SL-16 R/B,2007-029B,2026-07-19T04:56:55.707648,14.14854041,.00019082,70.9742,255.9210,257.5765,158.7539,0,U,31793,999,98397,.17482951E-3,.29E-5,0
KORONAS-FOTON,2009-003A,2026-07-19T05:53:57.208128,15.46360069,.00118264,82.4308,138.8027,49.7009,310.5271,0,U,33504,999,96605,.14780405E-3,.7355E-4,0
CZ-2C R/B,2011-030B,2026-07-19T02:42:38.632896,14.81536411,.0050687,97.8672,154.9281,283.0449,87.3516,0,U,37731,999,80955,.6149562E-4,.437E-5,0
H-2A R/B,2012-025E,2026-07-18T22:22:01.463232,14.95843001,.00426608,98.4847,177.7016,242.3943,117.2941,0,U,38341,999,76783,.73995165E-4,.77E-5,0
SHIJIAN-16 (SJ-16),2013-057A,2026-07-19T06:39:53.192736,14.92677135,.00156266,74.9738,295.9023,154.8108,205.3846,0,U,39358,999,69113,.72686935E-4,.722E-5,0
SL-4 R/B,2014-021B,2026-07-18T19:32:29.194656,15.42526441,.00895049,51.6064,55.7601,221.8175,137.5948,0,U,39679,999,67649,.12681891E-3,.5995E-4,0
ALOS-2,2014-029A,2026-07-19T06:21:16.932384,14.79471485,.0001582,97.9229,296.9702,91.8312,268.3081,0,U,39766,999,65632,.26500722E-4,.147E-5,0
YAOGAN-29,2015-069A,2026-07-19T07:00:58.739328,14.83106695,.00003626,98.0014,228.9743,0.1635,359.9579,0,U,41038,999,57538,-.5957811E-5,-.102E-5,0
ASTRO-H (HITOMI),2016-012A,2026-07-19T03:32:51.857088,15.10641324,.00096574,30.9975,227.7553,215.0666,144.9337,0,U,41337,999,57212,.63644194E-4,.1176E-4,0
HXMT (HUIYAN),2017-034A,2026-07-19T07:08:36.921984,15.18708221,.00317845,43.0153,4.2086,346.5246,13.4751,0,U,42758,999,50254,.10569246E-3,.2013E-4,0
SAOCOM 1A,2018-076A,2026-07-19T06:30:21.726720,14.82147914,.0001433,97.8888,26.5529,86.5660,273.5717,0,U,43641,999,42085,.17538808E-4,.87E-6,0
H-2A R/B,2018-084L,2026-07-19T05:39:49.801248,15.46296554,.00203006,98.8521,86.1545,285.2984,74.6017,0,U,43682,999,42607,.22384339E-3,.10996E-3,0
SAOCOM 1B,2020-059A,2026-07-19T05:38:04.079616,14.82144634,.0001521,97.8893,25.6138,82.7207,277.4179,0,U,46265,999,31823,.6104011E-5,-.4E-7,0
CSS (TIANHE),2021-035A,2026-07-19T04:31:57.491040,15.58190352,.00020384,41.4684,127.6260,305.5531,54.5117,0,U,48274,999,29816,.14395589E-3,.10864E-3,0
COSMOS 2550,2021-056A,2026-07-19T07:15:01.333728,15.33852012,.00085318,67.1440,2.7593,269.6446,90.3731,0,U,48865,999,28364,.90650376E-4,.2794E-4,0
CZ-2C R/B,2022-058K,2026-07-18T12:07:07.127040,15.64029106,.00301428,50.1860,0.2868,36.5675,323.7350,0,U,52794,999,23054,.24205197E-3,.23418E-3,0
CZ-2C R/B,2022-132E,2026-07-19T00:19:50.814048,15.75329562,.00088308,97.2897,208.5516,324.1546,35.9126,0,U,54039,999,21095,.29704755E-3,.44782E-3,0
GSLV R/B,2022-138AN,2026-07-19T04:42:57.546432,14.97393599,.00230617,87.3816,122.2358,38.9690,321.3198,0,U,54149,999,20360,.12686336E-3,.1511E-4,0
XRISM,2023-137A,2026-07-19T04:41:28.222656,15.12686798,.00078403,31.0011,152.2226,285.9268,74.0507,0,U,57800,999,15771,.11825372E-3,.222E-4,0
ACS3,2024-077B,2026-07-19T04:45:32.343264,13.95393023,.01297687,97.1737,111.8975,32.2666,328.6357,0,U,59588,999,11250,.26178549E-2,.3779E-4,0
SPACEMOBILE-003,2024-163A,2026-07-19T06:54:50.505120,15.20717853,.00043295,52.9672,161.8218,207.1995,152.8773,0,U,61045,999,10265,.79094198E-4,.1436E-4,0
SPACEMOBILE-005,2024-163B,2026-07-19T04:56:19.932000,15.20724362,.00085199,52.9754,162.1539,208.1551,151.8984,0,U,61046,999,10263,.1244598E-3,.2447E-4,0
SPACEMOBILE-001,2024-163C,2026-07-18T06:48:59.718528,15.20703424,.00070948,52.9715,166.1008,203.8926,156.1740,0,U,61047,999,10249,.13734528E-4,-.22E-6,0
SPACEMOBILE-002,2024-163D,2026-07-19T01:21:30.545856,15.20617345,.00047801,52.9790,162.5913,213.4370,146.6323,0,U,61048,999,10261,-.30577873E-3,-.7112E-4,0
