H-2A R/B                
1 28932U 06002B   26200.01870584  .00004383  00000+0  20950-3 0  9991
2 28932  98.2603 358.7430 0051013 153.1092 207.2801 15.18481784114356
RESURS-DK 1             
1 29228U 06021A   26200.22634253  .00000890  00000+0  55964-4 0  9998
2 29228  69.9302 256.6083 0007351 266.6194  93.4131 15.13327135107420
CZ-4B R/B               
1 29507U 06046C   26200.09348072  .00002098  00000+0  10523-3 0  9994
2 29507  97.5433 244.6030 0032964 168.6677 191.5306 15.17998869 79970
CZ-2C R/B               
1 31114U 07010B   26200.25485132  .00000045  00000+0  39739-4 0  9991
2 31114  98.4121 307.0411 0057726 271.7191  87.7375 14.20282428998396
COSMO-SKYMED 1          
1 31598U 07023A   26200.28210255  .00001672  00000+0  14967-3 0  9998
2 31598  97.8851  32.4099 0001733  99.6516 260.4901 14.97232646 34590
COSMOS 2428             
1 31792U 07029A   26200.21420510  .00000294  00000+0  18342-3 0  9990
2 31792  70.9382 287.2337 0007264  73.2878 286.9040 14.12937129982679
SL-16 R/B               
1 31793U 07029B   26200.20620032  .00000290  00000+0  17483-3 0  9992
2 31793  70.9742 255.9210 0001908 257.5765 158.7539 14.14854041983979
KORONAS-FOTON           
1 33504U 09003A   26200.24580102  .00007355  00000+0  14780-3 0  9991
2 33504  82.4308 138.8027 0011826  49.7009 310.5271 15.46360069966053
CZ-2C R/B               
1 37731U 11030B   26200.11294714  .00000437  00000+0  61496-4 0  9998
2 37731  97.8672 154.9281 0050687 283.0449  87.3516 14.81536411809559
H-2A R/B                
1 38341U 12025E   26199.93196138  .00000770  00000+0  73995-4 0  9996
2 38341  98.4847 177.7016 0042660 242.3943 117.2941 14.95843001767836
SHIJIAN-16 (SJ-16)      
1 39358U 13057A   26200.27769899  .00000722  00000+0  72687-4 0  9995
2 39358  74.9738 295.9023 0015626 154.8108 205.3846 14.92677135691138
SL-4 R/B                
1 39679U 14021B   26199.81422679  .00005995  00000+0  12682-3 0  9997
2 39679  51.6064  55.7601 0089504 221.8175 137.5948 15.42526441676497
ALOS-2                  
1 39766U 14029A   26200.26477931  .00000147  00000+0  26501-4 0  9995
2 39766  97.9229 296.9702 0001582  91.8312 268.3081 14.79471485656326
YAOGAN-29               
1 41038U 15069A   26200.29234652 -.00000102  00000+0 -59578-5 0  9993
2 41038  98.0014 228.9743 0000362   0.1635 359.9579 14.83106695575389
ASTRO-H (HITOMI)        
1 41337U 16012A   26200.14782242  .00001176  00000+0  63644-4 0  9999
2 41337  30.9975 227.7553 0009657 215.0666 144.9337 15.10641324572122
HXMT (HUIYAN)           
1 42758U 17034A   26200.29764956  .00002013  00000+0  10569-3 0  9998
2 42758  43.0153   4.2086 0031784 346.5246  13.4751 15.18708221502549
SAOCOM 1A               
1 43641U 18076A   26200.27108480  .00000087  00000+0  17539-4 0  9993
2 43641  97.8888  26.5529 0001433  86.5660 273.5717 14.82147914420851
H-2A R/B                
1 43682U 18084L   26200.23599307  .00010996  00000+0  22384-3 0  9998
2 43682  98.8521  86.1545 0020300 285.2984  74.6017 15.46296554426071
SAOCOM 1B               
1 46265U 20059A   26200.23476944 -.00000004  00000+0  61040-5 0  9998
2 46265  97.8893  25.6138 0001521  82.7207 277.4179 14.82144634318230
CSS (TIANHE)            
1 48274U 21035A   26200.18885985  .00010864  00000+0  14396-3 0  9992
2 48274  41.4684 127.6260 0002038 305.5531  54.5117 15.58190352298161
COSMOS 2550             
1 48865U 21056A   26200.30209877  .00002794  00000+0  90650-4 0  9996
2 48865  67.1440   2.7593 0008531 269.6446  90.3731 15.33852012283641
CZ-2C R/B               
1 52794U 22058K   26199.50494360  .00023418  00000+0  24205-3 0  9995
2 52794  50.1860   0.2868 0030142  36.5675 323.7350 15.64029106230546
CZ-2C R/B               
1 54039U 22132E   26200.01378257  .00044782  00000+0  29705-3 0  9994
2 54039  97.2897 208.5516 0008830 324.1546  35.9126 15.75329562210954
GSLV R/B                
1 54149U 22138AN  26200.19649938  .00001511  00000+0  12686-3 0  9991
2 54149  87.3816 122.2358 0023061  38.9690 321.3198 14.97393599203605
XRISM                   
1 57800U 23137A   26200.19546554  .00002220  00000+0  11825-3 0  9990
2 57800  31.0011 152.2226 0007840 285.9268  74.0507 15.12686798157714
ACS3                    
1 59588U 24077B   26200.19829101  .00003779  00000+0  26179-2 0  9998
2 59588  97.1737 111.8975 0129768  32.2666 328.6357 13.95393023112502
SPACEMOBILE-003         
1 61045U 24163A   26200.28808455  .00001436  00000+0  79094-4 0  9998
2 61045  52.9672 161.8218 0004329 207.1995 152.8773 15.20717853102653
SPACEMOBILE-005         
1 61046U 24163B   26200.20578625  .00002447  00000+0  12446-3 0  9994
2 61046  52.9754 162.1539 0008519 208.1551 151.8984 15.20724362102633
SPACEMOBILE-001         
1 61047U 24163C   26199.28402452 -.00000022  00000+0  13735-4 0  9995
2 61047  52.9715 166.1008 0007094 203.8926 156.1740 15.20703424102499
SPACEMOBILE-002         
1 61048U 24163D   26200.05660354 -.00007112  00000+0 -30578-3 0  9992
2 61048  52.9790 162.5913 0004780 213.4370 146.6323 15.20617345102618
